[{"OBJECT_NAME":"STARLINK-30155","OBJECT_ID":"2023-107U","EPOCH":"2026-03-09T04:18:15.875424","MEAN_MOTION":15.26734779,"ECCENTRICITY":0.00025937,"INCLINATION":43.0046,"RA_OF_ASC_NODE":338.5844,"ARG_OF_PERICENTER":269.8096,"MEAN_ANOMALY":90.2458,"EPHEMERIS_TYPE":0,"CLASSIFICATION_TYPE":"U","NORAD_CAT_ID":57475,"ELEMENT_SET_NO":999,"REV_AT_EPOCH":14507,"BSTAR":2.4290445e-5,"MEAN_MOTION_DOT":3.91e-6,"MEAN_MOTION_DDOT":0},{"OBJECT_NAME":"IRIS-F3","OBJECT_ID":"2025-009L","EPOCH":"2026-03-09T04:59:06.478368","MEAN_MOTION":15.25132086,"ECCENTRICITY":0.00052431,"INCLINATION":97.4086,"RA_OF_ASC_NODE":149.9233,"ARG_OF_PERICENTER":320.9173,"MEAN_ANOMALY":39.1686,"EPHEMERIS_TYPE":0,"CLASSIFICATION_TYPE":"U","NORAD_CAT_ID":62619,"ELEMENT_SET_NO":999,"REV_AT_EPOCH":6357,"BSTAR":0.0007418705,"MEAN_MOTION_DOT":0.00018549,"MEAN_MOTION_DDOT":0}]
