STARLINK-30155          
1 57475U 23107U   26068.17935041  .00000391  00000+0  24290-4 0  9996
2 57475  43.0046 338.5844 0002593 269.8096  90.2458 15.26734779145077
IRIS-F3                 
1 62619U 25009L   26068.20771387  .00018549  00000+0  74187-3 0  9993
2 62619  97.4086 149.9233 0005243 320.9173  39.1686 15.25132086 63577
